[{"OBJECT_NAME":"PUNCH-WFI 3 (SMEX 15D)","OBJECT_ID":"2025-047C","EPOCH":"2026-03-09T15:33:49.952448","MEAN_MOTION":14.74226556,"ECCENTRICITY":0.00111539,"INCLINATION":97.9538,"RA_OF_ASC_NODE":255.5249,"ARG_OF_PERICENTER":124.4994,"MEAN_ANOMALY":235.7269,"EPHEMERIS_TYPE":0,"CLASSIFICATION_TYPE":"U","NORAD_CAT_ID":63180,"ELEMENT_SET_NO":999,"REV_AT_EPOCH":5339,"BSTAR":0.00013724614,"MEAN_MOTION_DOT":8.58e-6,"MEAN_MOTION_DDOT":0},{"OBJECT_NAME":"WESTFORD NEEDLES","OBJECT_ID":"1963-014S","EPOCH":"2026-03-09T10:01:57.798912","MEAN_MOTION":9.01637053,"ECCENTRICITY":0.28837628,"INCLINATION":84.3721,"RA_OF_ASC_NODE":86.0719,"ARG_OF_PERICENTER":230.3098,"MEAN_ANOMALY":100.624,"EPHEMERIS_TYPE":0,"CLASSIFICATION_TYPE":"U","NORAD_CAT_ID":2367,"ELEMENT_SET_NO":999,"REV_AT_EPOCH":298,"BSTAR":0.026385159,"MEAN_MOTION_DOT":0.0002543,"MEAN_MOTION_DDOT":0}]
